STARLINK-36951          
1 67990U 26039E   26064.25003472 -.01505453  67704-3 -32155-2 0  9992
2 67990  42.9976  82.4788 0001589 269.4247 248.4410 15.97782892  2164
STARLINK-36941          
1 67991U 26039F   26064.25003472 -.01483654  65987-3 -31494-2 0  9997
2 67991  42.9974  82.4756 0001631 269.0218 250.0206 15.97890239  2167
STARLINK-36950          
1 67992U 26039G   26064.25003472 -.01466555  64683-3 -30905-2 0  9997
2 67992  42.9976  82.4719 0001592 264.4892 256.1134 15.98017827  2164
STARLINK-36975          
1 67993U 26039H   26064.25003472 -.01480381  65906-3 -30951-2 0  9991
2 67993  42.9975  82.4682 0001635 271.4235 250.6148 15.98160766  2165
STARLINK-36993          
1 67994U 26039J   26064.25003472 -.01469865  65140-3 -30500-2 0  9996
2 67994  42.9976  82.4643 0001535 269.4799 254.1780 15.98294084  2167
STARLINK-36968          
1 67995U 26039K   26064.25003472 -.01496909  67572-3 -30552-2 0  9994
2 67995  42.9976  82.4529 0001562 271.7924 256.3007 15.98591870  2166
STARLINK-36979          
1 67996U 26039L   26064.25003472 -.01489727  66880-3 -30639-2 0  9992
2 67996  42.9975  82.4566 0001580 269.3009 257.3070 15.98455002  2161
STARLINK-36994          
1 67997U 26039M   26064.25003472 -.01480048  66374-3 -29735-2 0  9993
2 67997  42.9975  82.4443 0001463 274.2738 257.1137 15.98869344  2160
STARLINK-36988          
1 67998U 26039N   26064.25003472 -.01484421  66642-3 -30046-2 0  9998
2 67998  42.9977  82.4483 0001548 268.6382 261.2366 15.98737523  2166
STARLINK-36926          
1 67999U 26039P   26064.25003472 -.01475700  66112-3 -29418-2 0  9992
2 67999  42.9976  82.4406 0001629 269.1968 263.7869 15.99005135  2160
STARLINK-36931          
1 68000U 26039Q   26064.25003472 -.01478753  66448-3 -29282-2 0  9998
2 68000  42.9977  82.4376 0001545 270.9043 263.2966 15.99124597  2169
STARLINK-36903          
1 68001U 26039R   26064.25003472 -.01461722  65142-3 -28719-2 0  9991
2 68001  42.9979  82.4335 0001558 269.3326 266.5064 15.99259320  2165
STARLINK-36898          
1 68002U 26039S   26064.25003472 -.01457480  64978-3 -28208-2 0  9997
2 68002  42.9977  82.4255 0001606 266.2764 272.6528 15.99523118  2163
STARLINK-36862          
1 68003U 26039T   26064.25003472 -.01451654  64670-3 -27706-2 0  9996
2 68003  42.9978  82.4182 0001568 268.9680 272.7939 15.99766250  2160
STARLINK-36888          
1 68004U 26039U   26064.25003472 -.01459881  65078-3 -28479-2 0  9998
2 68004  42.9980  82.4298 0001537 267.8493 269.4933 15.99384705  2166
STARLINK-36910          
1 68005U 26039V   26064.25003472 -.01465321  65719-3 -28139-2 0  9990
2 68005  42.9978  82.4216 0001603 269.1876 271.2474 15.99660896  2167
