[{"OBJECT_NAME":"STARLINK-36951","OBJECT_ID":"2026-039E","EPOCH":"2026-03-05T06:00:02.999808","MEAN_MOTION":15.97782892,"ECCENTRICITY":0.0001589,"INCLINATION":42.9976,"RA_OF_ASC_NODE":82.4788,"ARG_OF_PERICENTER":269.4247,"MEAN_ANOMALY":248.441,"EPHEMERIS_TYPE":0,"CLASSIFICATION_TYPE":"U","NORAD_CAT_ID":67990,"ELEMENT_SET_NO":999,"REV_AT_EPOCH":216,"BSTAR":-0.0032154632,"MEAN_MOTION_DOT":-0.01505453,"MEAN_MOTION_DDOT":0.00067704222},{"OBJECT_NAME":"STARLINK-36941","OBJECT_ID":"2026-039F","EPOCH":"2026-03-05T06:00:02.999808","MEAN_MOTION":15.97890239,"ECCENTRICITY":0.00016319,"INCLINATION":42.9974,"RA_OF_ASC_NODE":82.4756,"ARG_OF_PERICENTER":269.0218,"MEAN_ANOMALY":250.0206,"EPHEMERIS_TYPE":0,"CLASSIFICATION_TYPE":"U","NORAD_CAT_ID":67991,"ELEMENT_SET_NO":999,"REV_AT_EPOCH":216,"BSTAR":-0.003149362,"MEAN_MOTION_DOT":-0.01483654,"MEAN_MOTION_DDOT":0.00065986837},{"OBJECT_NAME":"STARLINK-36950","OBJECT_ID":"2026-039G","EPOCH":"2026-03-05T06:00:02.999808","MEAN_MOTION":15.98017827,"ECCENTRICITY":0.00015926,"INCLINATION":42.9976,"RA_OF_ASC_NODE":82.4719,"ARG_OF_PERICENTER":264.4892,"MEAN_ANOMALY":256.1134,"EPHEMERIS_TYPE":0,"CLASSIFICATION_TYPE":"U","NORAD_CAT_ID":67992,"ELEMENT_SET_NO":999,"REV_AT_EPOCH":216,"BSTAR":-0.0030905071,"MEAN_MOTION_DOT":-0.01466555,"MEAN_MOTION_DDOT":0.00064682592},{"OBJECT_NAME":"STARLINK-36975","OBJECT_ID":"2026-039H","EPOCH":"2026-03-05T06:00:02.999808","MEAN_MOTION":15.98160766,"ECCENTRICITY":0.00016351,"INCLINATION":42.9975,"RA_OF_ASC_NODE":82.4682,"ARG_OF_PERICENTER":271.4235,"MEAN_ANOMALY":250.6148,"EPHEMERIS_TYPE":0,"CLASSIFICATION_TYPE":"U","NORAD_CAT_ID":67993,"ELEMENT_SET_NO":999,"REV_AT_EPOCH":216,"BSTAR":-0.0030951127,"MEAN_MOTION_DOT":-0.01480381,"MEAN_MOTION_DDOT":0.00065906291},{"OBJECT_NAME":"STARLINK-36993","OBJECT_ID":"2026-039J","EPOCH":"2026-03-05T06:00:02.999808","MEAN_MOTION":15.98294084,"ECCENTRICITY":0.00015356,"INCLINATION":42.9976,"RA_OF_ASC_NODE":82.4643,"ARG_OF_PERICENTER":269.4799,"MEAN_ANOMALY":254.178,"EPHEMERIS_TYPE":0,"CLASSIFICATION_TYPE":"U","NORAD_CAT_ID":67994,"ELEMENT_SET_NO":999,"REV_AT_EPOCH":216,"BSTAR":-0.003050008,"MEAN_MOTION_DOT":-0.01469865,"MEAN_MOTION_DDOT":0.00065139874},{"OBJECT_NAME":"STARLINK-36968","OBJECT_ID":"2026-039K","EPOCH":"2026-03-05T06:00:02.999808","MEAN_MOTION":15.9859187,"ECCENTRICITY":0.00015625,"INCLINATION":42.9976,"RA_OF_ASC_NODE":82.4529,"ARG_OF_PERICENTER":271.7924,"MEAN_ANOMALY":256.3007,"EPHEMERIS_TYPE":0,"CLASSIFICATION_TYPE":"U","NORAD_CAT_ID":67995,"ELEMENT_SET_NO":999,"REV_AT_EPOCH":216,"BSTAR":-0.0030552206,"MEAN_MOTION_DOT":-0.01496909,"MEAN_MOTION_DDOT":0.00067572308},{"OBJECT_NAME":"STARLINK-36979","OBJECT_ID":"2026-039L","EPOCH":"2026-03-05T06:00:02.999808","MEAN_MOTION":15.98455002,"ECCENTRICITY":0.00015808,"INCLINATION":42.9975,"RA_OF_ASC_NODE":82.4566,"ARG_OF_PERICENTER":269.3009,"MEAN_ANOMALY":257.307,"EPHEMERIS_TYPE":0,"CLASSIFICATION_TYPE":"U","NORAD_CAT_ID":67996,"ELEMENT_SET_NO":999,"REV_AT_EPOCH":216,"BSTAR":-0.0030638859,"MEAN_MOTION_DOT":-0.01489727,"MEAN_MOTION_DDOT":0.00066880386},{"OBJECT_NAME":"STARLINK-36994","OBJECT_ID":"2026-039M","EPOCH":"2026-03-05T06:00:02.999808","MEAN_MOTION":15.98869344,"ECCENTRICITY":0.00014632,"INCLINATION":42.9975,"RA_OF_ASC_NODE":82.4443,"ARG_OF_PERICENTER":274.2738,"MEAN_ANOMALY":257.1137,"EPHEMERIS_TYPE":0,"CLASSIFICATION_TYPE":"U","NORAD_CAT_ID":67997,"ELEMENT_SET_NO":999,"REV_AT_EPOCH":216,"BSTAR":-0.0029734753,"MEAN_MOTION_DOT":-0.01480048,"MEAN_MOTION_DDOT":0.0006637432},{"OBJECT_NAME":"STARLINK-36988","OBJECT_ID":"2026-039N","EPOCH":"2026-03-05T06:00:02.999808","MEAN_MOTION":15.98737523,"ECCENTRICITY":0.00015481,"INCLINATION":42.9977,"RA_OF_ASC_NODE":82.4483,"ARG_OF_PERICENTER":268.6382,"MEAN_ANOMALY":261.2366,"EPHEMERIS_TYPE":0,"CLASSIFICATION_TYPE":"U","NORAD_CAT_ID":67998,"ELEMENT_SET_NO":999,"REV_AT_EPOCH":216,"BSTAR":-0.0030046286,"MEAN_MOTION_DOT":-0.01484421,"MEAN_MOTION_DDOT":0.00066642166},{"OBJECT_NAME":"STARLINK-36926","OBJECT_ID":"2026-039P","EPOCH":"2026-03-05T06:00:02.999808","MEAN_MOTION":15.99005135,"ECCENTRICITY":0.00016295,"INCLINATION":42.9976,"RA_OF_ASC_NODE":82.4406,"ARG_OF_PERICENTER":269.1968,"MEAN_ANOMALY":263.7869,"EPHEMERIS_TYPE":0,"CLASSIFICATION_TYPE":"U","NORAD_CAT_ID":67999,"ELEMENT_SET_NO":999,"REV_AT_EPOCH":216,"BSTAR":-0.0029418412,"MEAN_MOTION_DOT":-0.014757,"MEAN_MOTION_DDOT":0.00066111761},{"OBJECT_NAME":"STARLINK-36931","OBJECT_ID":"2026-039Q","EPOCH":"2026-03-05T06:00:02.999808","MEAN_MOTION":15.99124597,"ECCENTRICITY":0.0001545,"INCLINATION":42.9977,"RA_OF_ASC_NODE":82.4376,"ARG_OF_PERICENTER":270.9043,"MEAN_ANOMALY":263.2966,"EPHEMERIS_TYPE":0,"CLASSIFICATION_TYPE":"U","NORAD_CAT_ID":68000,"ELEMENT_SET_NO":999,"REV_AT_EPOCH":216,"BSTAR":-0.0029281521,"MEAN_MOTION_DOT":-0.01478753,"MEAN_MOTION_DDOT":0.00066447997},{"OBJECT_NAME":"STARLINK-36903","OBJECT_ID":"2026-039R","EPOCH":"2026-03-05T06:00:02.999808","MEAN_MOTION":15.9925932,"ECCENTRICITY":0.00015584,"INCLINATION":42.9979,"RA_OF_ASC_NODE":82.4335,"ARG_OF_PERICENTER":269.3326,"MEAN_ANOMALY":266.5064,"EPHEMERIS_TYPE":0,"CLASSIFICATION_TYPE":"U","NORAD_CAT_ID":68001,"ELEMENT_SET_NO":999,"REV_AT_EPOCH":216,"BSTAR":-0.0028719363,"MEAN_MOTION_DOT":-0.01461722,"MEAN_MOTION_DDOT":0.00065141587},{"OBJECT_NAME":"STARLINK-36898","OBJECT_ID":"2026-039S","EPOCH":"2026-03-05T06:00:02.999808","MEAN_MOTION":15.99523118,"ECCENTRICITY":0.00016065,"INCLINATION":42.9977,"RA_OF_ASC_NODE":82.4255,"ARG_OF_PERICENTER":266.2764,"MEAN_ANOMALY":272.6528,"EPHEMERIS_TYPE":0,"CLASSIFICATION_TYPE":"U","NORAD_CAT_ID":68002,"ELEMENT_SET_NO":999,"REV_AT_EPOCH":216,"BSTAR":-0.002820783,"MEAN_MOTION_DOT":-0.0145748,"MEAN_MOTION_DDOT":0.00064977707},{"OBJECT_NAME":"STARLINK-36862","OBJECT_ID":"2026-039T","EPOCH":"2026-03-05T06:00:02.999808","MEAN_MOTION":15.9976625,"ECCENTRICITY":0.00015684,"INCLINATION":42.9978,"RA_OF_ASC_NODE":82.4182,"ARG_OF_PERICENTER":268.968,"MEAN_ANOMALY":272.7939,"EPHEMERIS_TYPE":0,"CLASSIFICATION_TYPE":"U","NORAD_CAT_ID":68003,"ELEMENT_SET_NO":999,"REV_AT_EPOCH":216,"BSTAR":-0.0027706394,"MEAN_MOTION_DOT":-0.01451654,"MEAN_MOTION_DDOT":0.00064669775},{"OBJECT_NAME":"STARLINK-36888","OBJECT_ID":"2026-039U","EPOCH":"2026-03-05T06:00:02.999808","MEAN_MOTION":15.99384705,"ECCENTRICITY":0.00015374,"INCLINATION":42.998,"RA_OF_ASC_NODE":82.4298,"ARG_OF_PERICENTER":267.8493,"MEAN_ANOMALY":269.4933,"EPHEMERIS_TYPE":0,"CLASSIFICATION_TYPE":"U","NORAD_CAT_ID":68004,"ELEMENT_SET_NO":999,"REV_AT_EPOCH":216,"BSTAR":-0.0028479,"MEAN_MOTION_DOT":-0.01459881,"MEAN_MOTION_DDOT":0.00065078109},{"OBJECT_NAME":"STARLINK-36910","OBJECT_ID":"2026-039V","EPOCH":"2026-03-05T06:00:02.999808","MEAN_MOTION":15.99660896,"ECCENTRICITY":0.00016036,"INCLINATION":42.9978,"RA_OF_ASC_NODE":82.4216,"ARG_OF_PERICENTER":269.1876,"MEAN_ANOMALY":271.2474,"EPHEMERIS_TYPE":0,"CLASSIFICATION_TYPE":"U","NORAD_CAT_ID":68005,"ELEMENT_SET_NO":999,"REV_AT_EPOCH":216,"BSTAR":-0.0028139384,"MEAN_MOTION_DOT":-0.01465321,"MEAN_MOTION_DDOT":0.0006571879}]
